[{"OBJECT_NAME":"STARLINK-2494","OBJECT_ID":"2021-040BM","EPOCH":"2026-03-09T15:52:46.220448","MEAN_MOTION":15.30208187,"ECCENTRICITY":0.00014118,"INCLINATION":53.162,"RA_OF_ASC_NODE":194.1526,"ARG_OF_PERICENTER":74.5162,"MEAN_ANOMALY":285.5994,"EPHEMERIS_TYPE":0,"CLASSIFICATION_TYPE":"U","NORAD_CAT_ID":48487,"ELEMENT_SET_NO":999,"REV_AT_EPOCH":26646,"BSTAR":0.00040475051,"MEAN_MOTION_DOT":0.0001165,"MEAN_MOTION_DDOT":0},{"OBJECT_NAME":"CZ-3B R\/B","OBJECT_ID":"2015-037C","EPOCH":"2026-03-09T22:10:00.350688","MEAN_MOTION":13.12456199,"ECCENTRICITY":0.14168881,"INCLINATION":54.748,"RA_OF_ASC_NODE":105.1722,"ARG_OF_PERICENTER":341.4572,"MEAN_ANOMALY":13.933,"EPHEMERIS_TYPE":0,"CLASSIFICATION_TYPE":"U","NORAD_CAT_ID":40750,"ELEMENT_SET_NO":999,"REV_AT_EPOCH":20509,"BSTAR":0.00047355631,"MEAN_MOTION_DOT":0.02441896,"MEAN_MOTION_DDOT":5.846346e-6}]
